{"fetched_at":"2026-03-30T06:02:59Z","count":15439,"tles":[{"name":"STARLINK-2071","line1":"1 47361U 21005N   26087.89533081 -.00000050  00000+0  15539-4 0  9991","line2":"2 47361  53.0543 305.3997 0001368  83.4759 276.6386 15.06406751286350","category":"Starlink"}]}